LYNK TOWER 3            
1 55046U 23001AP  26068.68752747  .00013886  00000+0  42324-3 0  9997
2 55046  97.3321 129.5399 0009859 112.8813 247.3472 15.34026505176644
STARLINK-35226          
1 65492U 25198A   26068.81665882  .00016855  00000+0  57996-3 0  9990
2 65492  53.1595 270.1174 0001028  77.2929 282.8187 15.30197756 28645
